[{"OBJECT_NAME":"GRUS-1C","OBJECT_ID":"2021-022B","EPOCH":"2026-03-09T22:02:59.067744","MEAN_MOTION":14.98740486,"ECCENTRICITY":0.00125084,"INCLINATION":97.5524,"RA_OF_ASC_NODE":315.2446,"ARG_OF_PERICENTER":300.8214,"MEAN_ANOMALY":59.1778,"EPHEMERIS_TYPE":0,"CLASSIFICATION_TYPE":"U","NORAD_CAT_ID":47933,"ELEMENT_SET_NO":999,"REV_AT_EPOCH":27103,"BSTAR":0.00015887452,"MEAN_MOTION_DOT":1.857e-5,"MEAN_MOTION_DDOT":0},{"OBJECT_NAME":"STARLINK-5990","OBJECT_ID":"2023-064A","EPOCH":"2026-03-09T05:13:27.483744","MEAN_MOTION":14.98564845,"ECCENTRICITY":0.0004516,"INCLINATION":70.0007,"RA_OF_ASC_NODE":145.7196,"ARG_OF_PERICENTER":261.0003,"MEAN_ANOMALY":99.0646,"EPHEMERIS_TYPE":0,"CLASSIFICATION_TYPE":"U","NORAD_CAT_ID":56448,"ELEMENT_SET_NO":999,"REV_AT_EPOCH":15517,"BSTAR":0.002277471,"MEAN_MOTION_DOT":0.00027357,"MEAN_MOTION_DDOT":0}]
